X-37B
1 45606U 20029A   20315.71477352 0.00000000  00000-0  00000-0 0    04
2 45606  45.0340  27.0186 0003556   3.0746 356.9250 15.60251363    04
